[{"OBJECT_NAME":"GPS BIIR-2  (PRN 13)","OBJECT_ID":"1997-035A","EPOCH":"2026-04-04T09:52:57.696096","MEAN_MOTION":2.00564009,"ECCENTRICITY":0.00989699,"INCLINATION":55.9542,"RA_OF_ASC_NODE":101.4579,"ARG_OF_PERICENTER":56.142,"MEAN_ANOMALY":304.8226,"EPHEMERIS_TYPE":0,"CLASSIFICATION_TYPE":"U","NORAD_CAT_ID":24876,"ELEMENT_SET_NO":999,"REV_AT_EPOCH":21047,"BSTAR":0,"MEAN_MOTION_DOT":1.5e-7,"MEAN_MOTION_DDOT":0},{"OBJECT_NAME":"GPS BIIR-5  (PRN 22)","OBJECT_ID":"2000-040A","EPOCH":"2026-04-04T17:47:28.705344","MEAN_MOTION":2.00569349,"ECCENTRICITY":0.01221297,"INCLINATION":54.8676,"RA_OF_ASC_NODE":218.078,"ARG_OF_PERICENTER":302.5098,"MEAN_ANOMALY":230.2419,"EPHEMERIS_TYPE":0,"CLASSIFICATION_TYPE":"U","NORAD_CAT_ID":26407,"ELEMENT_SET_NO":999,"REV_AT_EPOCH":18847,"BSTAR":0,"MEAN_MOTION_DOT":4.0e-8,"MEAN_MOTION_DDOT":0},{"OBJECT_NAME":"GPS BIIR-8  (PRN 16)","OBJECT_ID":"2003-005A","EPOCH":"2026-04-04T07:54:28.777536","MEAN_MOTION":2.00564623,"ECCENTRICITY":0.01484656,"INCLINATION":54.899,"RA_OF_ASC_NODE":217.9019,"ARG_OF_PERICENTER":52.8884,"MEAN_ANOMALY":318.0037,"EPHEMERIS_TYPE":0,"CLASSIFICATION_TYPE":"U","NORAD_CAT_ID":27663,"ELEMENT_SET_NO":999,"REV_AT_EPOCH":16983,"BSTAR":0,"MEAN_MOTION_DOT":1.0e-8,"MEAN_MOTION_DDOT":0},{"OBJECT_NAME":"GPS BIIR-11 (PRN 19)","OBJECT_ID":"2004-009A","EPOCH":"2026-04-03T08:14:52.746720","MEAN_MOTION":2.00557195,"ECCENTRICITY":0.01124448,"INCLINATION":54.8926,"RA_OF_ASC_NODE":278.7093,"ARG_OF_PERICENTER":169.9755,"MEAN_ANOMALY":4.1137,"EPHEMERIS_TYPE":0,"CLASSIFICATION_TYPE":"U","NORAD_CAT_ID":28190,"ELEMENT_SET_NO":999,"REV_AT_EPOCH":16144,"BSTAR":0,"MEAN_MOTION_DOT":-3.5e-7,"MEAN_MOTION_DDOT":0},{"OBJECT_NAME":"GPS BIIR-13 (PRN 02)","OBJECT_ID":"2004-045A","EPOCH":"2026-04-04T18:08:27.918816","MEAN_MOTION":2.00575086,"ECCENTRICITY":0.01703512,"INCLINATION":55.1773,"RA_OF_ASC_NODE":327.8549,"ARG_OF_PERICENTER":314.0213,"MEAN_ANOMALY":224.915,"EPHEMERIS_TYPE":0,"CLASSIFICATION_TYPE":"U","NORAD_CAT_ID":28474,"ELEMENT_SET_NO":999,"REV_AT_EPOCH":15695,"BSTAR":0,"MEAN_MOTION_DOT":-8.5e-7,"MEAN_MOTION_DDOT":0},{"OBJECT_NAME":"GPS BIIRM-1 (PRN 17)","OBJECT_ID":"2005-038A","EPOCH":"2026-04-04T19:30:47.503584","MEAN_MOTION":2.00570906,"ECCENTRICITY":0.01280736,"INCLINATION":54.939,"RA_OF_ASC_NODE":276.1367,"ARG_OF_PERICENTER":295.7028,"MEAN_ANOMALY":244.7252,"EPHEMERIS_TYPE":0,"CLASSIFICATION_TYPE":"U","NORAD_CAT_ID":28874,"ELEMENT_SET_NO":999,"REV_AT_EPOCH":15036,"BSTAR":0,"MEAN_MOTION_DOT":-2.3e-7,"MEAN_MOTION_DDOT":0},{"OBJECT_NAME":"INMARSAT 4-F2 (SOUTHPAN/PRN 122)","OBJECT_ID":"2005-044A","EPOCH":"2026-04-04T18:36:07.745760","MEAN_MOTION":1.00270403,"ECCENTRICITY":0.00031976,"INCLINATION":4.999,"RA_OF_ASC_NODE":43.7786,"ARG_OF_PERICENTER":354.1594,"MEAN_ANOMALY":217.6719,"EPHEMERIS_TYPE":0,"CLASSIFICATION_TYPE":"U","NORAD_CAT_ID":28899,"ELEMENT_SET_NO":999,"REV_AT_EPOCH":7478,"BSTAR":0,"MEAN_MOTION_DOT":-2.59e-6,"MEAN_MOTION_DDOT":0},{"OBJECT_NAME":"GPS BIIRM-2 (PRN 31)","OBJECT_ID":"2006-042A","EPOCH":"2026-04-04T05:21:30.777696","MEAN_MOTION":2.00573948,"ECCENTRICITY":0.0106286,"INCLINATION":54.6997,"RA_OF_ASC_NODE":154.2762,"ARG_OF_PERICENTER":53.1959,"MEAN_ANOMALY":318.7314,"EPHEMERIS_TYPE":0,"CLASSIFICATION_TYPE":"U","NORAD_CAT_ID":29486,"ELEMENT_SET_NO":999,"REV_AT_EPOCH":14291,"BSTAR":0,"MEAN_MOTION_DOT":3.0e-7,"MEAN_MOTION_DDOT":0},{"OBJECT_NAME":"GPS BIIRM-3 (PRN 12)","OBJECT_ID":"2006-052A","EPOCH":"2026-04-04T15:01:22.786752","MEAN_MOTION":2.0055382,"ECCENTRICITY":0.00870802,"INCLINATION":54.9494,"RA_OF_ASC_NODE":216.9209,"ARG_OF_PERICENTER":89.9254,"MEAN_ANOMALY":271.054,"EPHEMERIS_TYPE":0,"CLASSIFICATION_TYPE":"U","NORAD_CAT_ID":29601,"ELEMENT_SET_NO":999,"REV_AT_EPOCH":14193,"BSTAR":0,"MEAN_MOTION_DOT":4.0e-8,"MEAN_MOTION_DDOT":0},{"OBJECT_NAME":"GPS BIIRM-4 (PRN 15)","OBJECT_ID":"2007-047A","EPOCH":"2026-04-04T22:21:21.273408","MEAN_MOTION":2.00559152,"ECCENTRICITY":0.0164095,"INCLINATION":54.0414,"RA_OF_ASC_NODE":83.0831,"ARG_OF_PERICENTER":86.2491,"MEAN_ANOMALY":275.6217,"EPHEMERIS_TYPE":0,"CLASSIFICATION_TYPE":"U","NORAD_CAT_ID":32260,"ELEMENT_SET_NO":999,"REV_AT_EPOCH":13534,"BSTAR":0,"MEAN_MOTION_DOT":-1.3e-7,"MEAN_MOTION_DDOT":0},{"OBJECT_NAME":"COSMOS 2433 (720)","OBJECT_ID":"2007-052A","EPOCH":"2026-03-31T00:27:15.111360","MEAN_MOTION":2.13103725,"ECCENTRICITY":9.347e-5,"INCLINATION":65.6193,"RA_OF_ASC_NODE":318.5652,"ARG_OF_PERICENTER":250.3488,"MEAN_ANOMALY":109.6996,"EPHEMERIS_TYPE":0,"CLASSIFICATION_TYPE":"U","NORAD_CAT_ID":32275,"ELEMENT_SET_NO":999,"REV_AT_EPOCH":14339,"BSTAR":0,"MEAN_MOTION_DOT":-3.5e-7,"MEAN_MOTION_DDOT":0},{"OBJECT_NAME":"COSMOS 2432 (719)","OBJECT_ID":"2007-052B","EPOCH":"2026-04-04T18:54:50.950944","MEAN_MOTION":2.1310318,"ECCENTRICITY":0.0009726,"INCLINATION":65.633,"RA_OF_ASC_NODE":318.5309,"ARG_OF_PERICENTER":335.9229,"MEAN_ANOMALY":27.014,"EPHEMERIS_TYPE":0,"CLASSIFICATION_TYPE":"U","NORAD_CAT_ID":32276,"ELEMENT_SET_NO":999,"REV_AT_EPOCH":14352,"BSTAR":0,"MEAN_MOTION_DOT":-4.8e-7,"MEAN_MOTION_DDOT":0},{"OBJECT_NAME":"GPS BIIRM-5 (PRN 29)","OBJECT_ID":"2007-062A","EPOCH":"2026-04-04T00:02:28.728096","MEAN_MOTION":2.00555539,"ECCENTRICITY":0.00338812,"INCLINATION":55.0918,"RA_OF_ASC_NODE":277.1328,"ARG_OF_PERICENTER":161.3217,"MEAN_ANOMALY":14.6689,"EPHEMERIS_TYPE":0,"CLASSIFICATION_TYPE":"U","NORAD_CAT_ID":32384,"ELEMENT_SET_NO":999,"REV_AT_EPOCH":13402,"BSTAR":0,"MEAN_MOTION_DOT":-3.0e-7,"MEAN_MOTION_DDOT":0},{"OBJECT_NAME":"COSMOS 2434 (721)","OBJECT_ID":"2007-065A","EPOCH":"2026-04-03T10:57:57.930336","MEAN_MOTION":2.13101374,"ECCENTRICITY":0.00022557,"INCLINATION":64.3164,"RA_OF_ASC_NODE":194.435,"ARG_OF_PERICENTER":60.204,"MEAN_ANOMALY":307.5513,"EPHEMERIS_TYPE":0,"CLASSIFICATION_TYPE":"U","NORAD_CAT_ID":32393,"ELEMENT_SET_NO":999,"REV_AT_EPOCH":14218,"BSTAR":0,"MEAN_MOTION_DOT":1.4e-7,"MEAN_MOTION_DDOT":0},{"OBJECT_NAME":"COSMOS 2436 (723)","OBJECT_ID":"2007-065C","EPOCH":"2026-04-04T15:52:33.448800","MEAN_MOTION":2.13100259,"ECCENTRICITY":0.0017261,"INCLINATION":64.325,"RA_OF_ASC_NODE":194.4655,"ARG_OF_PERICENTER":2.7751,"MEAN_ANOMALY":341.7064,"EPHEMERIS_TYPE":0,"CLASSIFICATION_TYPE":"U","NORAD_CAT_ID":32395,"ELEMENT_SET_NO":999,"REV_AT_EPOCH":14215,"BSTAR":0,"MEAN_MOTION_DOT":1.8e-7,"MEAN_MOTION_DDOT":0},{"OBJECT_NAME":"GPS BIIRM-6 (PRN 07)","OBJECT_ID":"2008-012A","EPOCH":"2026-04-04T08:23:38.450112","MEAN_MOTION":2.00570366,"ECCENTRICITY":0.0208692,"INCLINATION":54.4848,"RA_OF_ASC_NODE":152.8753,"ARG_OF_PERICENTER":246.7317,"MEAN_ANOMALY":111.1368,"EPHEMERIS_TYPE":0,"CLASSIFICATION_TYPE":"U","NORAD_CAT_ID":32711,"ELEMENT_SET_NO":999,"REV_AT_EPOCH":13227,"BSTAR":0,"MEAN_MOTION_DOT":2.9e-7,"MEAN_MOTION_DDOT":0},{"OBJECT_NAME":"GPS BIIRM-8 (PRN 05)","OBJECT_ID":"2009-043A","EPOCH":"2026-04-04T20:12:32.343264","MEAN_MOTION":2.00558542,"ECCENTRICITY":0.00524638,"INCLINATION":56.1675,"RA_OF_ASC_NODE":30.333,"ARG_OF_PERICENTER":80.9165,"MEAN_ANOMALY":289.0663,"EPHEMERIS_TYPE":0,"CLASSIFICATION_TYPE":"U","NORAD_CAT_ID":35752,"ELEMENT_SET_NO":999,"REV_AT_EPOCH":12189,"BSTAR":0,"MEAN_MOTION_DOT":-9.0e-7,"MEAN_MOTION_DDOT":0}]
