GPS BIIR-2  (PRN 13)    
1 24876U 97035A   26094.41177889  .00000015  00000+0  00000+0 0  9991
2 24876  55.9542 101.4579 0098969  56.1420 304.8226  2.00564009210470
GPS BIIR-5  (PRN 22)    
1 26407U 00040A   26094.74130446  .00000004  00000+0  00000+0 0  9995
2 26407  54.8676 218.0780 0122129 302.5098 230.2419  2.00569349188474
GPS BIIR-8  (PRN 16)    
1 27663U 03005A   26094.32949974  .00000001  00000+0  00000+0 0  9999
2 27663  54.8990 217.9019 0148465  52.8884 318.0037  2.00564623169830
GPS BIIR-11 (PRN 19)    
1 28190U 04009A   26093.34366605 -.00000035  00000+0  00000+0 0  9993
2 28190  54.8926 278.7093 0112444 169.9755   4.1137  2.00557195161446
GPS BIIR-13 (PRN 02)    
1 28474U 04045A   26094.75587869 -.00000085  00000+0  00000+0 0  9996
2 28474  55.1773 327.8549 0170351 314.0213 224.9150  2.00575086156956
GPS BIIRM-1 (PRN 17)    
1 28874U 05038A   26094.81304981 -.00000023  00000+0  00000+0 0  9994
2 28874  54.9390 276.1367 0128073 295.7028 244.7252  2.00570906150367
INMARSAT 4-F2 (SOUTHPA*)
1 28899U 05044A   26094.77508965 -.00000259  00000+0  00000+0 0  9992
2 28899   4.9990  43.7786 0003197 354.1594 217.6719  1.00270403 74781
GPS BIIRM-2 (PRN 31)    
1 29486U 06042A   26094.22327289  .00000030  00000+0  00000+0 0  9998
2 29486  54.6997 154.2762 0106286  53.1959 318.7314  2.00573948142915
GPS BIIRM-3 (PRN 12)    
1 29601U 06052A   26094.62595818  .00000004  00000+0  00000+0 0  9998
2 29601  54.9494 216.9209 0087080  89.9254 271.0540  2.00553820141936
GPS BIIRM-4 (PRN 15)    
1 32260U 07047A   26094.93149622 -.00000013  00000+0  00000+0 0  9991
2 32260  54.0414  83.0831 0164095  86.2491 275.6217  2.00559152135346
COSMOS 2433 (720)       
1 32275U 07052A   26090.01892490 -.00000035  00000+0  00000+0 0  9990
2 32275  65.6193 318.5652 0000934 250.3488 109.6996  2.13103725143391
COSMOS 2432 (719)       
1 32276U 07052B   26094.78808971 -.00000048  00000+0  00000+0 0  9994
2 32276  65.6330 318.5309 0009726 335.9229  27.0140  2.13103180143529
GPS BIIRM-5 (PRN 29)    
1 32384U 07062A   26094.00172139 -.00000030  00000+0  00000+0 0  9991
2 32384  55.0918 277.1328 0033881 161.3217  14.6689  2.00555539134022
COSMOS 2434 (721)       
1 32393U 07065A   26093.45692049  .00000014  00000+0  00000+0 0  9990
2 32393  64.3164 194.4350 0002255  60.2040 307.5513  2.13101374142180
COSMOS 2436 (723)       
1 32395U 07065C   26094.66149825  .00000018  00000+0  00000+0 0  9999
2 32395  64.3250 194.4655 0017261   2.7751 341.7064  2.13100259142158
GPS BIIRM-6 (PRN 07)    
1 32711U 08012A   26094.34975058  .00000029  00000+0  00000+0 0  9996
2 32711  54.4848 152.8753 0208692 246.7317 111.1368  2.00570366132272
GPS BIIRM-8 (PRN 05)    
1 35752U 09043A   26094.84204101 -.00000090  00000+0  00000+0 0  9997
2 35752  56.1675  30.3330 0052463  80.9165 289.0663  2.00558542121891
